[{"OBJECT_NAME":"TIANMU-1 08","OBJECT_ID":"2023-101B","EPOCH":"2026-03-07T00:03:25.475616","MEAN_MOTION":15.29204229,"ECCENTRICITY":0.00063808,"INCLINATION":97.2717,"RA_OF_ASC_NODE":118.7901,"ARG_OF_PERICENTER":134.2174,"MEAN_ANOMALY":225.9592,"EPHEMERIS_TYPE":0,"CLASSIFICATION_TYPE":"U","NORAD_CAT_ID":57400,"ELEMENT_SET_NO":999,"REV_AT_EPOCH":14602,"BSTAR":1.4774513e-5,"MEAN_MOTION_DOT":3.46e-6,"MEAN_MOTION_DDOT":0},{"OBJECT_NAME":"STARLINK-31141","OBJECT_ID":"2024-012S","EPOCH":"2026-03-09T07:07:15.530592","MEAN_MOTION":15.27549168,"ECCENTRICITY":7.138e-5,"INCLINATION":42.9989,"RA_OF_ASC_NODE":167.6553,"ARG_OF_PERICENTER":245.7491,"MEAN_ANOMALY":114.3286,"EPHEMERIS_TYPE":0,"CLASSIFICATION_TYPE":"U","NORAD_CAT_ID":58803,"ELEMENT_SET_NO":999,"REV_AT_EPOCH":12117,"BSTAR":-0.00082860928,"MEAN_MOTION_DOT":-0.00022971,"MEAN_MOTION_DDOT":0}]
